NOAA 1 [-]              
1 04793U 70106A   22194.39958550 -.00000018  00000+0  16126-3 0  9997
2 04793 101.5552 257.5532 0031114 271.6151  99.1104 12.54006136360849
NOAA 2 (ITOS-D) [-]     
1 06235U 72082A   22194.42891226 -.00000033  00000+0  83696-4 0  9999
2 06235 101.9534 176.8248 0004400  30.0485 124.6822 12.53149089275220
NOAA 3 [-]              
1 06920U 73086A   22194.38181469 -.00000058  00000+0 -91208-4 0  9997
2 06920 102.2084 175.9932 0006015 243.1289 289.7016 12.40347455204007
NOAA 4 [-]              
1 07529U 74089A   22194.40828104 -.00000043  00000+0  19676-4 0  9996
2 07529 101.9136 174.1217 0009469  55.2916 100.3606 12.53158616179792
NOAA 5 [-]              
1 09057U 76077A   22194.36336806 -.00000053  00000+0 -60032-4 0  9995
2 09057 102.0988 162.0770 0010321  89.9489  69.4521 12.37772239 76944
TIROS N [-]             
1 11060U 78096A   22194.37699965  .00000103  00000+0  70642-4 0  9996
2 11060  98.6339 247.4316 0011699  71.6071 288.6376 14.18397408475284
NOAA 6 [-]              
1 11416U 79057A   22194.29343233  .00000189  00000+0  84174-4 0  9993
2 11416  98.6630 205.1880 0010315 175.9995 184.1274 14.33771516245226
NOAA 7 [-]              
1 12553U 81059A   22194.35050774  .00000039  00000+0  41668-4 0  9998
2 12553  98.9973 239.0866 0012221  46.2565 313.9618 14.17336274121466
NOAA 8 [-]              
1 13923U 83022A   22194.26686443  .00000086  00000+0  51730-4 0  9993
2 13923  98.6871 184.7105 0015930 131.0481 229.2079 14.28816038 46092
NOAA 9 [-]              
1 15427U 84123A   22194.39806788  .00000075  00000+0  61117-4 0  9995
2 15427  99.0464 167.1913 0015923  91.6210  61.4323 14.16208891940282
NOAA 10 [-]             
1 16969U 86073A   22194.39306020  .00000067  00000+0  44405-4 0  9999
2 16969  98.5682 180.0708 0011177 233.7958 287.8594 14.28207305864530
NOAA 11 [-]             
1 19531U 88089A   22194.42927624  .00000033  00000+0  37698-4 0  9998
2 19531  98.4245 182.0852 0012362 102.5396 257.7162 14.15314261744495
NOAA 12 [-]             
1 21263U 91032A   22194.52401504  .00000058  00000+0  42085-4 0  9993
2 21263  98.5138 193.6155 0012429 262.7581  97.2186 14.25999615620449
NOAA 13 [-]             
1 22739U 93050A   22194.43699218  .00000075  00000+0  62350-4 0  9991
2 22739  98.5053 172.9434 0008306 269.8470  90.1751 14.12849391490725
NOAA 14 [-]             
1 23455U 94089A   22194.52055613  .00000043  00000+0  44189-4 0  9990
2 23455  98.4465 219.8127 0008347 246.6899 113.3397 14.14201470420392
NOAA 15 [B]             
1 25338U 98030A   22194.79964637  .00000177  00000+0  92230-4 0  9994
2 25338  98.6424 223.9887 0009673 215.2754 144.7787 14.26149512257025
NOAA 16 [-]             
1 26536U 00055A   22194.59123302  .00000056  00000+0  52527-4 0  9990
2 26536  98.6350 252.5894 0011715  91.5750 268.6766 14.13334068421047
NOAA 17 [-]             
1 27453U 02032A   22194.55048239  .00000047  00000+0  38880-4 0  9993
2 27453  98.6725 139.5079 0011482 190.6137 169.4801 14.25128024 42573
NOAA 18 [B]             
1 28654U 05018A   22194.76496746  .00000183  00000+0  12264-3 0  9995
2 28654  98.9483 265.1793 0013204 255.6663 104.3043 14.12752581883789
NOAA 19 [+]             
1 33591U 09005A   22194.76927422  .00000153  00000+0  10790-3 0  9990
2 33591  99.1462 229.4567 0014911 112.9547 247.3199 14.12587308692162
SUOMI NPP [+]           
1 37849U 11061A   22194.84371563  .00000039  00000+0  39285-4 0  9997
2 37849  98.7330 133.0309 0001106  89.2906 334.0433 14.19533121554930
NOAA 20 [+]             
1 43013U 17073A   22194.79600852  .00000035  00000+0  37255-4 0  9997
2 43013  98.7169 132.9396 0001227  64.2263 295.9039 14.19561168240961
